start=new Date('2022-12-17T00:00:00.000Z').valueOf();
sats=[{"CENTER_NAME":"EARTH","REV_AT_EPOCH":"4573","TLE_LINE2":"2 51751  53.2153 201.2042 0002363  36.1080 324.0071 15.08831277 45731","GP_ID":"220664069","OBJECT_ID":"2022-016AP","OBJECT_NAME":"STARLINK-3506","ARG_OF_PERICENTER":"36.1080","RA_OF_ASC_NODE":"201.2042","MEAN_MOTION_DDOT":"0.0000000000000","ELEMENT_SET_NO":"999","CLASSIFICATION_TYPE":"U","MEAN_MOTION_DOT":"0.00000733","OBJECT_TYPE":"PAYLOAD","SEMIMAJOR_AXIS":"6917.907","EPHEMERIS_TYPE":"0","PERIAPSIS":"538.137","FILE":"3705029","REF_FRAME":"TEME","EPOCH":"2022-12-16T20:05:48.240096","RCS_SIZE":"LARGE","SITE":"AFETR","TIME_SYSTEM":"UTC","NORAD_CAT_ID":"51751","MEAN_ANOMALY":"324.0071","MEAN_MOTION":"15.08831277","COUNTRY_CODE":"US","INCLINATION":"53.2153","MEAN_ELEMENT_THEORY":"SGP4","LAUNCH_DATE":"2022-02-21","APOAPSIS":"541.407","ECCENTRICITY":"0.00023630","BSTAR":"0.00006414900000","TLE_LINE1":"1 51751U 22016AP  22350.83736389  .00000733  00000-0  64149-4 0  9990","PERIOD":"95.438","DECAY_DATE":null},{"ECCENTRICITY":"0.00029670","BSTAR":"0.00004314000000","TLE_LINE1":"1 51752U 22016AQ  22350.82264079  .00000398  00000-0  43140-4 0  9997","PERIOD":"95.438","DECAY_DATE":null,"INCLINATION":"53.2167","MEAN_ELEMENT_THEORY":"SGP4","LAUNCH_DATE":"2022-02-21","APOAPSIS":"541.801","MEAN_MOTION":"15.08839087","COUNTRY_CODE":"US","EPOCH":"2022-12-16T19:44:36.164256","RCS_SIZE":"LARGE","SITE":"AFETR","NORAD_CAT_ID":"51752","MEAN_ANOMALY":"324.6193","TIME_SYSTEM":"UTC","PERIAPSIS":"537.696","FILE":"3705029","REF_FRAME":"TEME","OBJECT_TYPE":"PAYLOAD","MEAN_MOTION_DOT":"0.00000398","SEMIMAJOR_AXIS":"6917.883","EPHEMERIS_TYPE":"0","RA_OF_ASC_NODE":"201.2715","MEAN_MOTION_DDOT":"0.0000000000000","ELEMENT_SET_NO":"999","CLASSIFICATION_TYPE":"U","CENTER_NAME":"EARTH","REV_AT_EPOCH":"4573","TLE_LINE2":"2 51752  53.2167 201.2715 0002967  35.4997 324.6193 15.08839087 45731","OBJECT_ID":"2022-016AQ","GP_ID":"220664804","OBJECT_NAME":"STARLINK-3511","ARG_OF_PERICENTER":"35.4997"},{"INCLINATION":"53.2155","APOAPSIS":"541.636","MEAN_ELEMENT_THEORY":"SGP4","LAUNCH_DATE":"2022-02-21","TLE_LINE1":"1 51753U 22016AR  22350.82999877 -.00000323  00000-0 -21533-5 0  9992","ECCENTRICITY":"0.00027280","BSTAR":"-0.00000215330000","DECAY_DATE":null,"PERIOD":"95.438","RCS_SIZE":"LARGE","MEAN_ANOMALY":"328.1171","SITE":"AFETR","NORAD_CAT_ID":"51753","TIME_SYSTEM":"UTC","EPOCH":"2022-12-16T19:55:11.893728","MEAN_MOTION":"15.08838932","COUNTRY_CODE":"US","OBJECT_TYPE":"PAYLOAD","MEAN_MOTION_DOT":"-0.00000323","SEMIMAJOR_AXIS":"6917.884","EPHEMERIS_TYPE":"0","PERIAPSIS":"537.861","REF_FRAME":"TEME","FILE":"3705029","TLE_LINE2":"2 51753  53.2155 201.2369 0002728  31.9986 328.1171 15.08838932 45731","GP_ID":"220663571","OBJECT_ID":"2022-016AR","CENTER_NAME":"EARTH","REV_AT_EPOCH":"4573","ARG_OF_PERICENTER":"31.9986","OBJECT_NAME":"STARLINK-3507","RA_OF_ASC_NODE":"201.2369","MEAN_MOTION_DDOT":"0.0000000000000","ELEMENT_SET_NO":"999","CLASSIFICATION_TYPE":"U"},{"REF_FRAME":"TEME","FILE":"3705029","PERIAPSIS":"537.654","EPHEMERIS_TYPE":"0","OBJECT_TYPE":"PAYLOAD","MEAN_MOTION_DOT":"-0.00000141","SEMIMAJOR_AXIS":"6917.896","MEAN_MOTION_DDOT":"0.0000000000000","ELEMENT_SET_NO":"999","CLASSIFICATION_TYPE":"U","RA_OF_ASC_NODE":"201.2927","OBJECT_NAME":"STARLINK-3457","ARG_OF_PERICENTER":"32.4813","TLE_LINE2":"2 51754  53.2164 201.2927 0003046  32.4813 327.6366 15.08834804 45735","OBJECT_ID":"2022-016AS","GP_ID":"220663316","CENTER_NAME":"EARTH","REV_AT_EPOCH":"4573","DECAY_DATE":null,"PERIOD":"95.438","TLE_LINE1":"1 51754U 22016AS  22350.81623976 -.00000141  00000-0  93027-5 0  9990","ECCENTRICITY":"0.00030460","BSTAR":"0.00000930270000","APOAPSIS":"541.868","MEAN_ELEMENT_THEORY":"SGP4","LAUNCH_DATE":"2022-02-21","INCLINATION":"53.2164","COUNTRY_CODE":"US","MEAN_MOTION":"15.08834804","RCS_SIZE":"LARGE","SITE":"AFETR","MEAN_ANOMALY":"327.6366","NORAD_CAT_ID":"51754","TIME_SYSTEM":"UTC","EPOCH":"2022-12-16T19:35:23.115264"},{"FILE":"3705029","REF_FRAME":"TEME","PERIAPSIS":"537.944","EPHEMERIS_TYPE":"0","MEAN_MOTION_DOT":"0.00000296","OBJECT_TYPE":"PAYLOAD","SEMIMAJOR_AXIS":"6917.936","MEAN_MOTION_DDOT":"0.0000000000000","ELEMENT_SET_NO":"999","CLASSIFICATION_TYPE":"U","RA_OF_ASC_NODE":"201.2847","ARG_OF_PERICENTER":"27.1202","OBJECT_NAME":"STARLINK-3460","CENTER_NAME":"EARTH","REV_AT_EPOCH":"4573","TLE_LINE2":"2 51755  53.2151 201.2847 0002685  27.1202 332.9930 15.08821706 45737","OBJECT_ID":"2022-016AT","GP_ID":"220664569","PERIOD":"95.439","DECAY_DATE":null,"ECCENTRICITY":"0.00026850","BSTAR":"0.00003674600000","TLE_LINE1":"1 51755U 22016AT  22350.81896898  .00000296  00000-0  36746-4 0  9990","LAUNCH_DATE":"2022-02-21","MEAN_ELEMENT_THEORY":"SGP4","APOAPSIS":"541.659","INCLINATION":"53.2151","COUNTRY_CODE":"US","MEAN_MOTION":"15.08821706","EPOCH":"2022-12-16T19:39:18.919872","RCS_SIZE":"LARGE","MEAN_ANOMALY":"332.9930","SITE":"AFETR","NORAD_CAT_ID":"51755","TIME_SYSTEM":"UTC"},{"OBJECT_TYPE":"PAYLOAD","MEAN_MOTION_DOT":"-0.00000197","SEMIMAJOR_AXIS":"6917.897","EPHEMERIS_TYPE":"0","PERIAPSIS":"537.960","REF_FRAME":"TEME","FILE":"3705029","TLE_LINE2":"2 51756  53.2159 201.1234 0002604  32.6632 327.4520 15.08834686 45740","GP_ID":"220664304","OBJECT_ID":"2022-016AU","CENTER_NAME":"EARTH","REV_AT_EPOCH":"4574","ARG_OF_PERICENTER":"32.6632","OBJECT_NAME":"STARLINK-3513","RA_OF_ASC_NODE":"201.1234","MEAN_MOTION_DDOT":"0.0000000000000","ELEMENT_SET_NO":"999","CLASSIFICATION_TYPE":"U","INCLINATION":"53.2159","APOAPSIS":"541.563","LAUNCH_DATE":"2022-02-21","MEAN_ELEMENT_THEORY":"SGP4","TLE_LINE1":"1 51756U 22016AU  22350.85576338 -.00000197  00000-0  57709-5 0  9993","ECCENTRICITY":"0.00026040","BSTAR":"0.00000577090000","DECAY_DATE":null,"PERIOD":"95.438","RCS_SIZE":"LARGE","SITE":"AFETR","NORAD_CAT_ID":"51756","MEAN_ANOMALY":"327.4520","TIME_SYSTEM":"UTC","EPOCH":"2022-12-16T20:32:17.956032","MEAN_MOTION":"15.08834686","COUNTRY_CODE":"US"},{"APOAPSIS":"541.472","LAUNCH_DATE":"2022-02-21","MEAN_ELEMENT_THEORY":"SGP4","INCLINATION":"53.2174","DECAY_DATE":null,"PERIOD":"95.438","TLE_LINE1":"1 51757U 22016AV  22350.85208986 -.00000594  00000-0 -19203-4 0  9993","BSTAR":"-0.00001920300000","ECCENTRICITY":"0.00024940","SITE":"AFETR","NORAD_CAT_ID":"51757","MEAN_ANOMALY":"319.3295","TIME_SYSTEM":"UTC","RCS_SIZE":"LARGE","EPOCH":"2022-12-16T20:27:00.563904","COUNTRY_CODE":"US","MEAN_MOTION":"15.08839669","EPHEMERIS_TYPE":"0","SEMIMAJOR_AXIS":"6917.881","MEAN_MOTION_DOT":"-0.00000594","OBJECT_TYPE":"PAYLOAD","REF_FRAME":"TEME","FILE":"3705029","PERIAPSIS":"538.021","OBJECT_NAME":"STARLINK-3459","ARG_OF_PERICENTER":"40.7883","GP_ID":"220663071","OBJECT_ID":"2022-016AV","TLE_LINE2":"2 51757  53.2174 201.1422 0002494  40.7883 319.3295 15.08839669 45747","REV_AT_EPOCH":"4574","CENTER_NAME":"EARTH","CLASSIFICATION_TYPE":"U","ELEMENT_SET_NO":"999","MEAN_MOTION_DDOT":"0.0000000000000","RA_OF_ASC_NODE":"201.1422"},{"CLASSIFICATION_TYPE":"U","MEAN_MOTION_DDOT":"0.0000000000000","ELEMENT_SET_NO":"999","RA_OF_ASC_NODE":"201.1506","OBJECT_NAME":"STARLINK-3458","ARG_OF_PERICENTER":"36.1306","REV_AT_EPOCH":"4688","CENTER_NAME":"EARTH","GP_ID":"220663817","OBJECT_ID":"2022-016AW","TLE_LINE2":"2 51758  53.2157 201.1506 0002755  36.1306 323.9871 15.08840304 46886","FILE":"3705029","REF_FRAME":"TEME","PERIAPSIS":"537.839","EPHEMERIS_TYPE":"0","SEMIMAJOR_AXIS":"6917.879","OBJECT_TYPE":"PAYLOAD","MEAN_MOTION_DOT":"0.00000071","COUNTRY_CODE":"US","MEAN_MOTION":"15.08840304","EPOCH":"2022-12-16T20:23:04.547616","SITE":"AFETR","TIME_SYSTEM":"UTC","NORAD_CAT_ID":"51758","MEAN_ANOMALY":"323.9871","RCS_SIZE":"LARGE","PERIOD":"95.438","DECAY_DATE":null,"BSTAR":"0.00002256900000","ECCENTRICITY":"0.00027550","TLE_LINE1":"1 51758U 22016AW  22350.84935819  .00000071  00000-0  22569-4 0  9992","LAUNCH_DATE":"2022-02-21","MEAN_ELEMENT_THEORY":"SGP4","APOAPSIS":"541.650","INCLINATION":"53.2157"},{"SEMIMAJOR_AXIS":"6917.930","MEAN_MOTION_DOT":"0.00005237","OBJECT_TYPE":"PAYLOAD","EPHEMERIS_TYPE":"0","PERIAPSIS":"538.061","FILE":"3705029","REF_FRAME":"TEME","REV_AT_EPOCH":"4574","CENTER_NAME":"EARTH","GP_ID":"220664070","OBJECT_ID":"2022-016AX","TLE_LINE2":"2 51759  53.2160 201.1581 0002507  29.4228 330.6905 15.08823618 45743","ARG_OF_PERICENTER":"29.4228","OBJECT_NAME":"STARLINK-3456","RA_OF_ASC_NODE":"201.1581","CLASSIFICATION_TYPE":"U","MEAN_MOTION_DDOT":"0.0000000000000","ELEMENT_SET_NO":"999","INCLINATION":"53.2160","MEAN_ELEMENT_THEORY":"SGP4","LAUNCH_DATE":"2022-02-21","APOAPSIS":"541.530","BSTAR":"0.00034706000000","ECCENTRICITY":"0.00025070","TLE_LINE1":"1 51759U 22016AX  22350.84840615  .00005237  00000-0  34706-3 0  9996","PERIOD":"95.439","DECAY_DATE":null,"EPOCH":"2022-12-16T20:21:42.291360","NORAD_CAT_ID":"51759","SITE":"AFETR","TIME_SYSTEM":"UTC","MEAN_ANOMALY":"330.6905","RCS_SIZE":"LARGE","MEAN_MOTION":"15.08823618","COUNTRY_CODE":"US"},{"ARG_OF_PERICENTER":"36.0413","OBJECT_NAME":"STARLINK-3622","TLE_LINE2":"2 51768  53.2163 231.3075 0002723  36.0413 324.0762 15.08840836 46075","GP_ID":"220664805","OBJECT_ID":"2022-017A","CENTER_NAME":"EARTH","REV_AT_EPOCH":"4607","MEAN_MOTION_DDOT":"0.0000000000000","ELEMENT_SET_NO":"999","CLASSIFICATION_TYPE":"U","RA_OF_ASC_NODE":"231.3075","EPHEMERIS_TYPE":"0","MEAN_MOTION_DOT":"-0.00000299","OBJECT_TYPE":"PAYLOAD","SEMIMAJOR_AXIS":"6917.878","REF_FRAME":"TEME","FILE":"3705029","PERIAPSIS":"537.859","RCS_SIZE":"LARGE","SITE":"AFWTR","NORAD_CAT_ID":"51768","TIME_SYSTEM":"UTC","MEAN_ANOMALY":"324.0762","EPOCH":"2022-12-16T19:30:01.251072","COUNTRY_CODE":"US","MEAN_MOTION":"15.08840836","APOAPSIS":"541.627","MEAN_ELEMENT_THEORY":"SGP4","LAUNCH_DATE":"2022-02-25","INCLINATION":"53.2163","DECAY_DATE":null,"PERIOD":"95.438","TLE_LINE1":"1 51768U 22017A   22350.81251448 -.00000299  00000-0 -66747-6 0  9992","ECCENTRICITY":"0.00027230","BSTAR":"-0.00000066747000"}];
